OBJECT_NAME,OBJECT_ID,EPOCH,MEAN_MOTION,ECCENTRICITY,INCLINATION,RA_OF_ASC_NODE,ARG_OF_PERICENTER,MEAN_ANOMALY,EPHEMERIS_TYPE,CLASSIFICATION_TYPE,NORAD_CAT_ID,ELEMENT_SET_NO,REV_AT_EPOCH,BSTAR,MEAN_MOTION_DOT,MEAN_MOTION_DDOT
FENGYUN 3D,2017-072A,2026-07-21T06:10:11.498592,14.19746473,.00011559,99.0156,177.2992,2.3514,357.7666,0,U,43010,999,44982,.17294237E-3,.32E-5,0
NOAA 20 (JPSS-1),2017-073A,2026-07-21T06:11:00.548736,14.19517260,.00015925,98.7772,141.4186,117.9935,242.1403,0,U,43013,999,44930,.29944514E-4,.19E-6,0
GOES 17,2018-022A,2026-07-21T05:44:38.702112,1.00272123,.00006229,1.0224,85.1778,59.1407,151.3441,0,U,43226,999,3076,0,-.182E-5,0
SENTINEL-3B,2018-039A,2026-07-21T03:10:52.929120,14.26737513,.00012761,98.6231,269.1747,118.4433,241.6877,0,U,43437,999,42896,.40727506E-4,.55E-6,0
FENGYUN 2H,2018-050A,2026-07-21T03:47:38.668416,1.00267148,.00020576,3.1169,78.6791,128.2727,227.9177,0,U,43491,999,2977,0,-.127E-5,0
METOP-C,2018-087A,2026-07-21T04:56:29.469696,14.21503989,.00020911,98.6625,261.1843,86.0249,274.1167,0,U,43689,999,39966,.43868448E-4,.53E-6,0
GEO-KOMPSAT-2A,2018-100A,2026-07-21T06:50:45.951648,1.00271970,.00024527,0.0282,141.7648,315.9450,72.2891,0,U,43823,999,2797,0,-.343E-5,0
METEOR-M2 2,2019-038A,2026-07-21T05:50:56.587200,14.24374021,.00003613,98.9172,190.0354,352.7706,7.3467,0,U,44387,999,36614,.10686392E-3,.201E-5,0
ARKTIKA-M 1,2021-016A,2026-07-17T21:31:16.955328,2.00610215,.72985164,63.2571,53.1467,270.0868,14.5016,0,U,47719,999,3940,0,-.295E-5,0
FENGYUN 3E,2021-062A,2026-07-21T07:23:01.574304,14.19906241,.00019717,98.7510,205.3367,29.6424,330.4864,0,U,49008,999,26142,-.26936463E-4,-.101E-5,0
GOES 18,2022-021A,2026-07-21T06:38:03.153696,1.00271146,.00003991,0.0158,142.3467,16.4533,102.7413,0,U,51850,999,693,0,.98E-6,0
NOAA 21 (JPSS-2),2022-150A,2026-07-21T05:15:52.720416,14.19541775,.00029208,98.7059,140.4370,93.5857,266.5653,0,U,54234,999,19137,.38359316E-4,.37E-6,0
METEOSAT-12 (MTG-I1),2022-170C,2026-07-21T06:14:04.470144,1.00269578,.00040895,0.7314,20.7503,81.0388,290.3631,0,U,54743,999,1332,0,-.8E-7,0
TIANMU-1 03,2023-039A,2026-07-21T06:01:35.546304,15.48155479,.00020607,97.5253,17.5804,4.4785,355.6483,0,U,55973,999,18610,.22101077E-3,.11519E-3,0
TIANMU-1 04,2023-039B,2026-07-21T07:00:01.508832,15.48787851,.00024108,97.5192,16.7794,348.5825,11.5370,0,U,55974,999,18612,.23104891E-3,.12317E-3,0
TIANMU-1 05,2023-039C,2026-07-21T07:09:22.644000,15.48080811,.00024427,97.5236,17.2318,31.1153,329.0241,0,U,55975,999,18609,.22257801E-3,.11571E-3,0
TIANMU-1 06,2023-039D,2026-07-21T07:08:04.703424,15.48682830,.00024724,97.5244,17.9014,19.9837,340.1509,0,U,55976,999,18612,.22583535E-3,.11992E-3,0
FENGYUN 3G,2023-055A,2026-07-21T06:21:03.305376,15.53971589,.00068592,49.9913,170.2416,84.4415,275.7334,0,U,56232,999,18530,.28783123E-3,.18557E-3,0
METEOR-M2 3,2023-091A,2026-07-21T07:35:17.272896,14.24049294,.00050797,98.6064,256.5926,76.6507,283.5238,0,U,57166,999,15937,.13094447E-4,-.13E-6,0
TIANMU-1 07,2023-101A,2026-07-21T05:45:29.011104,15.30158716,.00033066,97.2574,252.1306,52.0439,308.1101,0,U,57399,999,16685,.15605547E-3,.448E-4,0
TIANMU-1 08,2023-101B,2026-07-21T06:31:29.308800,15.30162215,.00040054,97.2562,251.9274,29.5895,330.5572,0,U,57400,999,16685,.15858526E-3,.4554E-4,0
TIANMU-1 09,2023-101C,2026-07-21T06:06:25.723296,15.30204995,.00038896,97.2521,251.3089,50.8275,309.3311,0,U,57401,999,16685,.16480684E-3,.4742E-4,0
TIANMU-1 10,2023-101D,2026-07-21T06:54:52.557120,15.30178885,.00050832,97.2600,252.4272,37.5341,322.6254,0,U,57402,999,16685,.16677609E-3,.4796E-4,0
FENGYUN 3F,2023-111A,2026-07-21T06:58:40.615104,14.19944087,.00011491,98.6821,271.6613,75.2344,284.8960,0,U,57490,999,15370,.26074298E-4,.12E-6,0
ARKTIKA-M 2,2023-198A,2026-07-15T04:12:00.091584,2.00608092,.69107365,63.2178,151.2342,267.3397,18.7345,0,U,58584,999,1888,0,.129E-5,0
TIANMU-1 11,2023-205A,2026-07-21T06:09:27.844992,15.27300896,.00071274,97.3447,223.2848,234.9865,125.0706,0,U,58645,999,14272,.14895186E-3,.3912E-4,0
TIANMU-1 12,2023-205B,2026-07-20T20:04:52.352256,15.26977641,.00063276,97.3436,222.6157,215.7107,144.3709,0,U,58646,999,14264,.39679707E-4,.979E-5,0
TIANMU-1 13,2023-205C,2026-07-21T06:18:52.699680,15.27126708,.00065084,97.3463,223.3179,188.7645,171.3482,0,U,58647,999,14270,.15781534E-3,.4127E-4,0
TIANMU-1 14,2023-205D,2026-07-21T07:30:30.468960,15.27170950,.00071063,97.3400,222.5220,195.8596,164.2421,0,U,58648,999,14271,.15479003E-3,.4052E-4,0
TIANMU-1 19,2023-208A,2026-07-21T06:07:43.578336,15.32034103,.00051911,97.4524,318.7457,176.8186,183.3089,0,U,58660,999,14254,.20157495E-3,.6157E-4,0
