FENGYUN 3D              
1 43010U 17072A   26202.25707753  .00000320  00000+0  17294-3 0  9993
2 43010  99.0156 177.2992 0001155   2.3514 357.7666 14.19746473449827
NOAA 20 (JPSS-1)        
1 43013U 17073A   26202.25764524  .00000019  00000+0  29945-4 0  9998
2 43013  98.7772 141.4186 0001592 117.9935 242.1403 14.19517260449302
GOES 17                 
1 43226U 18022A   26202.23933683 -.00000182  00000+0  00000+0 0  9999
2 43226   1.0224  85.1778 0000622  59.1407 151.3441  1.00272123 30763
SENTINEL-3B             
1 43437U 18039A   26202.13255705  .00000055  00000+0  40728-4 0  9996
2 43437  98.6231 269.1747 0001276 118.4433 241.6877 14.26737513428961
FENGYUN 2H              
1 43491U 18050A   26202.15808644 -.00000127  00000+0  00000+0 0  9992
2 43491   3.1169  78.6791 0002057 128.2727 227.9177  1.00267148 29773
METOP-C                 
1 43689U 18087A   26202.20589664  .00000053  00000+0  43868-4 0  9996
2 43689  98.6625 261.1843 0002091  86.0249 274.1167 14.21503989399667
GEO-KOMPSAT-2A          
1 43823U 18100A   26202.28525407 -.00000343  00000+0  00000+0 0  9994
2 43823   0.0282 141.7648 0002452 315.9450  72.2891  1.00271970 27976
METEOR-M2 2             
1 44387U 19038A   26202.24371050  .00000201  00000+0  10686-3 0  9997
2 44387  98.9172 190.0354 0000361 352.7706   7.3467 14.24374021366141
ARKTIKA-M 1             
1 47719U 21016A   26198.89672402 -.00000295  00000+0  00000+0 0  9997
2 47719  63.2571  53.1467 7298516 270.0868  14.5016  2.00610215 39409
FENGYUN 3E              
1 49008U 21062A   26202.30765711 -.00000101  00000+0 -26936-4 0  9997
2 49008  98.7510 205.3367 0001971  29.6424 330.4864 14.19906241261424
GOES 18                 
1 51850U 22021A   26202.27642539  .00000098  00000+0  00000+0 0  9991
2 51850   0.0158 142.3467 0000399  16.4533 102.7413  1.00271146  6933
NOAA 21 (JPSS-2)        
1 54234U 22150A   26202.21936019  .00000037  00000+0  38359-4 0  9992
2 54234  98.7059 140.4370 0002920  93.5857 266.5653 14.19541775191375
METEOSAT-12 (MTG-I1)    
1 54743U 22170C   26202.25977396 -.00000008  00000+0  00000+0 0  9992
2 54743   0.7314  20.7503 0004089  81.0388 290.3631  1.00269578 13327
TIANMU-1 03             
1 55973U 23039A   26202.25110586  .00011519  00000+0  22101-3 0  9991
2 55973  97.5253  17.5804 0002060   4.4785 355.6483 15.48155479186102
TIANMU-1 04             
1 55974U 23039B   26202.29168413  .00012317  00000+0  23105-3 0  9990
2 55974  97.5192  16.7794 0002410 348.5825  11.5370 15.48787851186120
TIANMU-1 05             
1 55975U 23039C   26202.29817875  .00011571  00000+0  22258-3 0  9993
2 55975  97.5236  17.2318 0002442  31.1153 329.0241 15.48080811186094
TIANMU-1 06             
1 55976U 23039D   26202.29727666  .00011992  00000+0  22584-3 0  9991
2 55976  97.5244  17.9014 0002472  19.9837 340.1509 15.48682830186124
FENGYUN 3G              
1 56232U 23055A   26202.26462159  .00018557  00000+0  28783-3 0  9996
2 56232  49.9913 170.2416 0006859  84.4415 275.7334 15.53971589185301
METEOR-M2 3             
1 57166U 23091A   26202.31617214 -.00000013  00000+0  13094-4 0  9992
2 57166  98.6064 256.5926 0005079  76.6507 283.5238 14.24049294159372
TIANMU-1 07             
1 57399U 23101A   26202.23991911  .00004480  00000+0  15606-3 0  9993
2 57399  97.2574 252.1306 0003306  52.0439 308.1101 15.30158716166850
TIANMU-1 08             
1 57400U 23101B   26202.27186700  .00004554  00000+0  15859-3 0  9994
2 57400  97.2562 251.9274 0004005  29.5895 330.5572 15.30162215166853
TIANMU-1 09             
1 57401U 23101C   26202.25446439  .00004742  00000+0  16481-3 0  9992
2 57401  97.2521 251.3089 0003889  50.8275 309.3311 15.30204995166852
TIANMU-1 10             
1 57402U 23101D   26202.28810830  .00004796  00000+0  16678-3 0  9993
2 57402  97.2600 252.4272 0005083  37.5341 322.6254 15.30178885166853
FENGYUN 3F              
1 57490U 23111A   26202.29074786  .00000012  00000+0  26074-4 0  9993
2 57490  98.6821 271.6613 0001149  75.2344 284.8960 14.19944087153707
ARKTIKA-M 2             
1 58584U 23198A   26196.17500106  .00000129  00000+0  00000+0 0  9997
2 58584  63.2178 151.2342 6910736 267.3397  18.7345  2.00608092 18886
TIANMU-1 11             
1 58645U 23205A   26202.25657228  .00003912  00000+0  14895-3 0  9993
2 58645  97.3447 223.2848 0007127 234.9865 125.0706 15.27300896142725
TIANMU-1 12             
1 58646U 23205B   26201.83671704  .00000979  00000+0  39680-4 0  9992
2 58646  97.3436 222.6157 0006327 215.7107 144.3709 15.26977641142642
TIANMU-1 13             
1 58647U 23205C   26202.26310995  .00004127  00000+0  15782-3 0  9998
2 58647  97.3463 223.3179 0006508 188.7645 171.3482 15.27126708142708
TIANMU-1 14             
1 58648U 23205D   26202.31285265  .00004052  00000+0  15479-3 0  9996
2 58648  97.3400 222.5220 0007106 195.8596 164.2421 15.27170950142710
TIANMU-1 19             
1 58660U 23208A   26202.25536549  .00006157  00000+0  20157-3 0  9997
2 58660  97.4524 318.7457 0005191 176.8186 183.3089 15.32034103142546
